[{"OBJECT_NAME":"STARLINK-2410","OBJECT_ID":"2021-018AQ","EPOCH":"2026-03-09T17:06:27.061344","MEAN_MOTION":15.30207751,"ECCENTRICITY":0.00013278,"INCLINATION":53.1592,"RA_OF_ASC_NODE":242.7377,"ARG_OF_PERICENTER":100.9479,"MEAN_ANOMALY":259.1672,"EPHEMERIS_TYPE":0,"CLASSIFICATION_TYPE":"U","NORAD_CAT_ID":47825,"ELEMENT_SET_NO":999,"REV_AT_EPOCH":27673,"BSTAR":7.5672564e-5,"MEAN_MOTION_DOT":1.883e-5,"MEAN_MOTION_DDOT":0},{"OBJECT_NAME":"EXO-0","OBJECT_ID":"2023-174DK","EPOCH":"2026-03-09T17:03:04.419648","MEAN_MOTION":15.32821991,"ECCENTRICITY":0.00098779,"INCLINATION":97.3864,"RA_OF_ASC_NODE":148.9039,"ARG_OF_PERICENTER":157.1125,"MEAN_ANOMALY":203.0559,"EPHEMERIS_TYPE":0,"CLASSIFICATION_TYPE":"U","NORAD_CAT_ID":59175,"ELEMENT_SET_NO":999,"REV_AT_EPOCH":12979,"BSTAR":0.00036716083,"MEAN_MOTION_DOT":0.00011582,"MEAN_MOTION_DDOT":0}]
